NAVSTAR 77 (USA 289)    
1 43873U 18109A   24275.80515856  .00000054  00000+0  00000+0 0  9999
2 43873  55.3394 116.8131 0030876 191.8007 179.2728  2.00560472 42577
